TRANSPORTER-10 OBJECT AG
1 59128U 24043AG  26068.92552531  .00009498  00000+0  32170-3 0  9997
2 59128  97.5471 205.7101 0009300 226.5958 133.4509 15.30759727111920
STARLINK-33547          
1 62283U 24237S   26068.39942571  .00035780  00000+0  13031-2 0  9993
2 62283  42.9953 207.0838 0000982 170.0613 190.0259 15.27589555 71275
